STARLINK-37447          
1 68810U 26089J   26199.52769721  .00010008  00000+0  31194-3 0  9993
2 68810  97.2857  46.1745 0002045  98.6303 261.5172 15.33441638 13455
STARLINK-37442          
1 68811U 26089K   26199.84853492  .00010080  00000+0  31412-3 0  9991
2 68811  97.2869  46.5016 0001450  85.1294 275.0114 15.33446594 13501
STARLINK-37431          
1 68812U 26089L   26199.13344710  .00007430  00000+0  23220-3 0  9995
2 68812  97.2846  45.7899 0002444  84.5511 275.6010 15.33447042 13393
STARLINK-37426          
1 68813U 26089M   26199.51953983  .00008139  00000+0  25399-3 0  9992
2 68813  97.2852  46.1862 0002214  83.6576 276.4919 15.33465164 13451
STARLINK-37459          
1 68814U 26089N   26199.84309307  .00013949  00000+0  43343-3 0  9998
2 68814  97.2864  46.5083 0002693  94.0293 266.1257 15.33455436 13505
STARLINK-37425          
1 68815U 26089P   26199.83765976  .00007863  00000+0  24563-3 0  9997
2 68815  97.2860  46.5184 0001806  90.9667 269.1783 15.33442596 13509
STARLINK-37315          
1 68816U 26089Q   26199.84037402  .00011103  00000+0  34572-3 0  9998
2 68816  97.2871  46.5130 0001350  96.9084 263.2313 15.33447201 13508
STARLINK-37444          
1 68817U 26089R   26199.11713095  .00008396  00000+0  26212-3 0  9990
2 68817  97.2850  45.8120 0001557  98.1152 262.0268 15.33442630 13390
STARLINK-37450          
1 68818U 26089S   26199.83222169  .00008208  00000+0  25630-3 0  9992
2 68818  97.2866  46.5246 0001679  91.4607 268.6828 15.33442085 13502
STARLINK-37409          
1 68819U 26089T   26199.56847984  .00004936  00000+0  15514-3 0  9995
2 68819  97.2857  46.2697 0001735  93.6117 266.5325 15.33438745 13465
STARLINK-37470          
1 68820U 26089U   26199.56032050  .00005833  00000+0  18283-3 0  9990
2 68820  97.2863  46.2828 0001393  92.1178 268.0224 15.33449149 13466
STARLINK-37421          
1 68821U 26089V   26199.82678461  .00014819  00000+0  46040-3 0  9998
2 68821  97.2870  46.5311 0002268  90.7359 269.4143 15.33447149 13500
STARLINK-37462          
1 68822U 26089W   26199.82406219  .00009862  00000+0  30734-3 0  9994
2 68822  97.2867  46.5382 0002420  89.5882 270.5638 15.33450115 13501
STARLINK-37410          
1 68823U 26089X   26199.81862522  .00009218  00000+0  28754-3 0  9991
2 68823  97.2865  46.5422 0001171  88.1612 271.9765 15.33442556 13509
STARLINK-37443          
1 68824U 26089Y   26199.55488486  .00004185  00000+0  13187-3 0  9998
2 68824  97.2859  46.2907 0001740  93.6217 266.5225 15.33447521 13465
STARLINK-37015          
1 68825U 26089Z   26199.55216658  .00011807  00000+0  36747-3 0  9995
2 68825  97.2855  46.2937 0001816  90.0086 270.1365 15.33445865 13469
STARLINK-37475          
1 68839U 26094A   26199.48742294  .00009296  00000+0  28993-3 0  9991
2 68839  97.2825 213.4630 0000945 117.3907 242.7432 15.33444724 12840
STARLINK-37452          
1 68840U 26094B   26199.28893950  .00007416  00000+0  23181-3 0  9993
2 68840  97.2840 213.2761 0001507  94.9699 265.1715 15.33442305 12818
STARLINK-37495          
1 68841U 26094C   26199.61249074  .00001895  00000+0  61035-4 0  9999
2 68841  97.2837 213.6008 0001354 113.8143 246.3242 15.33436084 12866
STARLINK-37524          
1 68842U 26094D   26199.02248223  .00007578  00000+0  23680-3 0  9997
2 68842  97.2834 213.0223 0001491  97.4719 262.6693 15.33446529 12771
STARLINK-37219          
1 68843U 26094E   26199.83335647 -.02687905  00000+0 -70169-1 0  9998
2 68843  97.2857 216.8908 0002348 102.9304  75.4643 15.42776766  5992
STARLINK-37538          
1 68844U 26094F   26199.01976352  .00007452  00000+0  23281-3 0  9997
2 68844  97.2821 213.0270 0001597  99.0643 261.0781 15.33458462 12772
STARLINK-37539          
1 68845U 26094G   26199.79738650  .00008103  00000+0  25301-3 0  9999
2 68845  97.2848 213.8055 0001650  97.8985 262.2445 15.33449295 12893
STARLINK-37547          
1 68846U 26094H   26199.27807408  .00009478  00000+0  29556-3 0  9993
2 68846  97.2839 213.2869 0001538  96.6275 263.5143 15.33443882 12812
STARLINK-37465          
1 68847U 26094J   26199.01160491  .00008759  00000+0  27332-3 0  9991
2 68847  97.2840 213.0388 0001402 100.2446 259.8955 15.33443721 12777
STARLINK-37373          
1 68848U 26094K   26199.46567376  .00008808  00000+0  27485-3 0  9998
2 68848  97.2830 213.4915 0001277  98.2853 261.8535 15.33442947 12849
STARLINK-37492          
1 68849U 26094L   26199.00616747  .00009892  00000+0  30835-3 0  9993
2 68849  97.2831 213.0451 0000824  99.4204 260.7132 15.33443428 12770
STARLINK-37482          
1 68850U 26094M   26199.78378125  .00014235  00000+0  44207-3 0  9990
2 68850  97.2837 213.8238 0001174  77.0200 283.1173 15.33470971 12896
STARLINK-37382          
1 68851U 26094N   26199.78651205  .00013081  00000+0  40677-3 0  9999
2 68851  97.2842 213.8205 0001335 111.7936 248.3449 15.33447293 12898
STARLINK-37423          
1 68852U 26094P   26198.99529141  .00011914  00000+0  37070-3 0  9991
2 68852  97.2835 213.0611 0001755  97.2137 262.9305 15.33449664 12775
STARLINK-37476          
1 68853U 26094Q   26199.45479549  .00011289  00000+0  35136-3 0  9996
2 68853  97.2834 213.5076 0000818  67.6723 292.4606 15.33454961 12842
STARLINK-37463          
1 68854U 26094R   26199.77563955  .00008232  00000+0  25708-3 0  9995
2 68854  97.2837 213.8347 0002263  91.1110 269.0392 15.33437486 12898
STARLINK-37467          
1 68855U 26094S   26199.51189061  .00009282  00000+0  28938-3 0  9994
2 68855  97.2841 213.5818 0000223 166.2279 193.8970 15.33455227 12853
STARLINK-37483          
1 68856U 26094T   26199.77019801  .00004069  00000+0  12830-3 0  9999
2 68856  97.2841 213.8429 0001596 101.5548 258.5874 15.33440541 12899
STARLINK-37468          
1 68857U 26094U   26199.76748303  .00009359  00000+0  29189-3 0  9997
2 68857  97.2838 213.8459 0002489  95.0747 265.0779 15.33439382 12897
STARLINK-37441          
1 68858U 26094V   26199.76476237  .00009791  00000+0  30525-3 0  9998
2 68858  97.2842 213.8493 0002178  89.7661 270.3831 15.33439921 12898
STARLINK-37488          
1 68859U 26094W   26199.76203838  .00008836  00000+0  27565-3 0  9993
2 68859  97.2838 213.8536 0001147  92.2506 267.8868 15.33449610 12891
STARLINK-37388          
1 68860U 26094X   26199.49557839  .00007704  00000+0  24066-3 0  9994
2 68860  97.2831 213.6019 0000445 104.7603 255.3689 15.33451730 12852
STARLINK-37479          
1 68861U 26094Y   26199.03335527  .00010334  00000+0  32198-3 0  9991
2 68861  97.2833 213.1607 0001120 121.5564 238.5788 15.33445002 12787
STARLINK-37453          
1 68862U 26094Z   26199.49829844  .00008263  00000+0  25796-3 0  9996
2 68862  97.2850 213.6021 0001114 118.1747 241.9608 15.33449810 12858
STARLINK-37430          
1 68863U 26094AA  26199.49286246  .00006754  00000+0  21136-3 0  9997
2 68863  97.2837 213.6081 0001351  99.3978 260.7418 15.33443243 12851
STARLINK-37527          
1 68895U 26097A   26199.52727421  .00008773  00000+0  27368-3 0  9990
2 68895  97.2861  34.5097 0002004  99.3321 260.8149 15.33452063 12287
STARLINK-37432          
1 68896U 26097B   26199.49462915  .00010713  00000+0  33365-3 0  9992
2 68896  97.2863  34.5543 0001862  88.9406 271.2050 15.33449777 12280
STARLINK-37534          
1 68897U 26097C   26199.80459045  .00007635  00000+0  23858-3 0  9993
2 68897  97.2861  34.8947 0001371  86.6386 273.5013 15.33445766 12331
STARLINK-37386          
1 68898U 26097D   26199.11941046  .00007004  00000+0  21904-3 0  9995
2 68898  97.2859  34.1440 0001584  94.5374 265.6050 15.33449040 12221
STARLINK-37514          
1 68899U 26097E   26199.78012267  .00003700  00000+0  11691-3 0  9994
2 68899  97.2855  34.7786 0001839  91.2680 268.8773 15.33439803 12328
STARLINK-36961          
1 68900U 26097F   26199.50278688  .00005092  00000+0  15995-3 0  9995
2 68900  97.2863  34.5407 0001595  92.5724 267.5701 15.33445422 12286
STARLINK-37360          
1 68901U 26097G   26199.79643339  .00012044  00000+0  37471-3 0  9994
2 68901  97.2874  34.9091 0001939  92.1915 267.9550 15.33451787 12335
STARLINK-37564          
1 68902U 26097H   26199.48647193  .00008730  00000+0  27244-3 0  9997
2 68902  97.2863  34.5641 0001748  92.7026 267.4417 15.33443354 12280
STARLINK-37567          
1 68903U 26097J   26199.11669235  .00006806  00000+0  21300-3 0  9998
2 68903  97.2860  34.1492 0001554  93.2335 266.9086 15.33437061 12220
STARLINK-37528          
1 68904U 26097K   26199.81003132  .00008039  00000+0  25113-3 0  9990
2 68904  97.2868  34.8908 0001171  83.4528 276.6848 15.33439020 12331
STARLINK-37494          
1 68905U 26097L   26199.50008812  .00022263  00000+0  69017-3 0  9993
2 68905  97.2836  34.5471 0000988  89.5940 270.5416 15.33432249 12283
STARLINK-37541          
1 68906U 26097M   26199.06775475  .00006408  00000+0  20056-3 0  9994
2 68906  97.2858  34.0622 0001389 107.3866 252.7529 15.33456214 12211
STARLINK-37551          
1 68907U 26097N   26199.78283889  .00007241  00000+0  22637-3 0  9990
2 68907  97.2858  34.7738 0001916  91.7940 268.3522 15.33448105 12320
STARLINK-37566          
1 68908U 26097P   26199.12484972  .00008289  00000+0  25878-3 0  9998
2 68908  97.2853  34.1395 0001785  91.0336 269.1112 15.33447518 12225
STARLINK-37544          
1 68909U 26097Q   26199.12212975  .00002510  00000+0  80028-4 0  9991
2 68909  97.2858  34.1417 0001562 126.8557 233.2830 15.33449012 12221
STARLINK-37493          
1 68910U 26097R   26199.11397246  .00005963  00000+0  18686-3 0  9992
2 68910  97.2863  34.1531 0001693  87.4779 272.6658 15.33448490 12223
STARLINK-37543          
1 68911U 26097S   26199.81818286  .00006681  00000+0  20901-3 0  9993
2 68911  97.2863  34.8789 0001831  87.4491 272.6962 15.33458512 12337
STARLINK-37477          
1 68912U 26097T   26199.48103547  .00008743  00000+0  27281-3 0  9993
2 68912  97.2863  34.5717 0002050  89.4488 270.6989 15.33445990 12285
